GSAT0208 (GALILEO 11)
1 41175U 15079B   25334.40706765  .00000048  00000+0  00000+0 0  9992
2 41175  55.7038 106.7167 0001887  11.7228 348.2564  1.70474193 61804